ONEWEB-0198             
1 48216U 21031G   23348.37737302 -.00000150  00000+0 -43864-3 0  9995
2 48216  87.8967 112.0201 0002064 112.9162 247.2185 13.14503887128177
ONEWEB-0189             
1 48217U 21031H   23348.39006056 -.00000024  00000+0 -99913-4 0  9990
2 48217  87.8963 111.9939 0002095 110.5321 249.6034 13.14503976127914
ONEWEB-0196             
1 48218U 21031J   23348.36786254 -.00000054  00000+0 -18006-3 0  9999
2 48218  87.8970 111.9960 0001663 110.1116 250.0193 13.14503537127910
ONEWEB-0183             
1 48219U 21031K   23348.34248834  .00000282  00000+0  72716-3 0  9994
2 48219  87.8970 112.0220 0001727 104.9080 255.2241 13.14501381128001
ONEWEB-0185             
1 48220U 21031L   23348.36865201 -.00000053  00000+0 -17738-3 0  9992
2 48220  87.8970 111.9896 0001818 101.2349 258.8985 13.14502997127938
ONEWEB-0187             
1 48221U 21031M   23348.41470495  .00000284  00000+0  73178-3 0  9990
2 48221  87.8967 112.0079 0001758 104.0209 256.1116 13.14512653127958
ONEWEB-0192             
1 48222U 21031N   23348.39482036 -.00000008  00000+0 -56760-4 0  9997
2 48222  87.9007 112.0053 0001716 108.9306 251.2010 13.14503184127860
ONEWEB-0219             
1 48223U 21031P   23348.37420011 -.00000191  00000+0 -55079-3 0  9995
2 48223  87.8966 111.9908 0001743 103.8123 256.3201 13.14502639128067
